YINHE_L_00001001-435
1 10434U 24228NT  26075.69965278  .00000000  00000+0  00000-0 0  9991
2 10434  63.5000   0.0000 0000000   0.0000 156.2400 15.18292791    12
YINHE_L_00001001-436
1 10435U 25406LG  26075.69965278  .00000000  00000+0  00000-0 0  9991
2 10435  63.5000   0.0000 0000000   0.0000 156.6000 15.18292791    13
YINHE_L_00001001-437
1 10436U 26536QO  26075.69965278  .00000000  00000+0  00000-0 0  9997
2 10436  63.5000   0.0000 0000000   0.0000 156.9600 15.18292791    13
YINHE_L_00001001-438
1 10437U 25480GH  26075.69965278  .00000000  00000+0  00000-0 0  9995
2 10437  63.5000   0.0000 0000000   0.0000 157.3200 15.18292791    15
YINHE_L_00001001-439
1 10438U 26603VE  26075.69965278  .00000000  00000+0  00000-0 0  9994
2 10438  63.5000   0.0000 0000000   0.0000 157.6800 15.18292791    15
YINHE_L_00001001-440
1 10439U 24015KO  26075.69965278  .00000000  00000+0  00000-0 0  9990
2 10439  63.5000   0.0000 0000000   0.0000 158.0400 15.18292791    17
YINHE_L_00001001-441
1 10440U 25697IW  26075.69965278  .00000000  00000+0  00000-0 0  9999
2 10440  63.5000   0.0000 0000000   0.0000 158.4000 15.18292791    19
YINHE_L_00001001-442
1 10441U 22668NE  26075.69965278  .00000000  00000+0  00000-0 0  9995
2 10441  63.5000   0.0000 0000000   0.0000 158.7600 15.18292791    19
YINHE_L_00001001-443
1 10442U 22628YZ  26075.69965278  .00000000  00000+0  00000-0 0  9992
2 10442  63.5000   0.0000 0000000   0.0000 159.1200 15.18292791    11
YINHE_L_00001001-444
1 10443U 25913WP  26075.69965278  .00000000  00000+0  00000-0 0  9993
2 10443  63.5000   0.0000 0000000   0.0000 159.4800 15.18292791    11
YINHE_L_00001001-445
1 10444U 22154YW  26075.69965278  .00000000  00000+0  00000-0 0  9998
2 10444  63.5000   0.0000 0000000   0.0000 159.8400 15.18292791    12
YINHE_L_00001001-446
1 10445U 25827OS  26075.69965278  .00000000  00000+0  00000-0 0  9999
2 10445  63.5000   0.0000 0000000   0.0000 160.2000 15.18292791    15
YINHE_L_00001001-447
1 10446U 24154HW  26075.69965278  .00000000  00000+0  00000-0 0  9992
2 10446  63.5000   0.0000 0000000   0.0000 160.5600 15.18292791    15
YINHE_L_00001001-448
1 10447U 25885CD  26075.69965278  .00000000  00000+0  00000-0 0  9995
2 10447  63.5000   0.0000 0000000   0.0000 160.9200 15.18292791    16
YINHE_L_00001001-449
1 10448U 26676GC  26075.69965278  .00000000  00000+0  00000-0 0  9995
2 10448  63.5000   0.0000 0000000   0.0000 161.2800 15.18292791    17
YINHE_L_00001001-450
1 10449U 25382UW  26075.69965278  .00000000  00000+0  00000-0 0  9999
2 10449  63.5000   0.0000 0000000   0.0000 161.6400 15.18292791    18
YINHE_L_00001001-451
1 10450U 26524VF  26075.69965278  .00000000  00000+0  00000-0 0  9990
2 10450  63.5000   0.0000 0000000   0.0000 162.0000 15.18292791    11
YINHE_L_00001001-452
1 10451U 23424YE  26075.69965278  .00000000  00000+0  00000-0 0  9997
2 10451  63.5000   0.0000 0000000   0.0000 162.3600 15.18292791    11
YINHE_L_00001001-453
1 10452U 25237OA  26075.69965278  .00000000  00000+0  00000-0 0  9992
2 10452  63.5000   0.0000 0000000   0.0000 162.7200 15.18292791    12
YINHE_L_00001001-454
1 10453U 25532BB  26075.69965278  .00000000  00000+0  00000-0 0  9991
2 10453  63.5000   0.0000 0000000   0.0000 163.0800 15.18292791    13
YINHE_L_00001001-455
1 10454U 26858IN  26075.69965278  .00000000  00000+0  00000-0 0  9994
2 10454  63.5000   0.0000 0000000   0.0000 163.4400 15.18292791    14
YINHE_L_00001001-456
1 10455U 24429XI  26075.69965278  .00000000  00000+0  00000-0 0  9997
2 10455  63.5000   0.0000 0000000   0.0000 163.8000 15.18292791    15
YINHE_L_00001001-457
1 10456U 23587XQ  26075.69965278  .00000000  00000+0  00000-0 0  9992
2 10456  63.5000   0.0000 0000000   0.0000 164.1600 15.18292791    16
YINHE_L_00001001-458
1 10457U 22133OD  26075.69965278  .00000000  00000+0  00000-0 0  9999
2 10457  63.5000   0.0000 0000000   0.0000 164.5200 15.18292791    17
YINHE_L_00001001-459
1 10458U 23238NS  26075.69965278  .00000000  00000+0  00000-0 0  9997
2 10458  63.5000   0.0000 0000000   0.0000 164.8800 15.18292791    17
YINHE_L_00001001-460
1 10459U 25507UO  26075.69965278  .00000000  00000+0  00000-0 0  9999
2 10459  63.5000   0.0000 0000000   0.0000 165.2400 15.18292791    19
YINHE_L_00001001-461
1 10460U 26471XU  26075.69965278  .00000000  00000+0  00000-0 0  9992
2 10460  63.5000   0.0000 0000000   0.0000 165.6000 15.18292791    11
YINHE_L_00001001-462
1 10461U 26190ZA  26075.69965278  .00000000  00000+0  00000-0 0  9991
2 10461  63.5000   0.0000 0000000   0.0000 165.9600 15.18292791    11
YINHE_L_00001001-463
1 10462U 22757AK  26075.69965278  .00000000  00000+0  00000-0 0  9997
2 10462  63.5000   0.0000 0000000   0.0000 166.3200 15.18292791    13
YINHE_L_00001001-464
1 10463U 22436NY  26075.69965278  .00000000  00000+0  00000-0 0  9992
2 10463  63.5000   0.0000 0000000   0.0000 166.6800 15.18292791    13
YINHE_L_00001001-465
1 10464U 25461RM  26075.69965278  .00000000  00000+0  00000-0 0  9994
2 10464  63.5000   0.0000 0000000   0.0000 167.0400 15.18292791    15
YINHE_L_00001001-466
1 10465U 23067KS  26075.69965278  .00000000  00000+0  00000-0 0  9995
2 10465  63.5000   0.0000 0000000   0.0000 167.4000 15.18292791    16
YINHE_L_00001001-467
1 10466U 24723CW  26075.69965278  .00000000  00000+0  00000-0 0  9996
2 10466  63.5000   0.0000 0000000   0.0000 167.7600 15.18292791    16
YINHE_L_00001001-468
1 10467U 25039JH  26075.69965278  .00000000  00000+0  00000-0 0  9998
2 10467  63.5000   0.0000 0000000   0.0000 168.1200 15.18292791    18
YINHE_L_00001001-469
1 10468U 22703FY  26075.69965278  .00000000  00000+0  00000-0 0  9994
2 10468  63.5000   0.0000 0000000   0.0000 168.4800 15.18292791    18
YINHE_L_00001001-470
1 10469U 23535WJ  26075.69965278  .00000000  00000+0  00000-0 0  9999
2 10469  63.5000   0.0000 0000000   0.0000 168.8400 15.18292791    19
YINHE_L_00001001-471
1 10470U 26380WQ  26075.69965278  .00000000  00000+0  00000-0 0  9992
2 10470  63.5000   0.0000 0000000   0.0000 169.2000 15.18292791    12
YINHE_L_00001001-472
1 10471U 24985ZR  26075.69965278  .00000000  00000+0  00000-0 0  9992
2 10471  63.5000   0.0000 0000000   0.0000 169.5600 15.18292791    12
YINHE_L_00001001-473
1 10472U 23592ZD  26075.69965278  .00000000  00000+0  00000-0 0  9996
2 10472  63.5000   0.0000 0000000   0.0000 169.9200 15.18292791    13
YINHE_L_00001001-474
1 10473U 22793YK  26075.69965278  .00000000  00000+0  00000-0 0  9999
2 10473  63.5000   0.0000 0000000   0.0000 170.2800 15.18292791    15
YINHE_L_00001001-475
1 10474U 25852VC  26075.69965278  .00000000  00000+0  00000-0 0  9999
2 10474  63.5000   0.0000 0000000   0.0000 170.6400 15.18292791    16
YINHE_L_00001001-476
1 10475U 24294DY  26075.69965278  .00000000  00000+0  00000-0 0  9999
2 10475  63.5000   0.0000 0000000   0.0000 171.0000 15.18292791    18
YINHE_L_00001001-477
1 10476U 24005LN  26075.69965278  .00000000  00000+0  00000-0 0  9990
2 10476  63.5000   0.0000 0000000   0.0000 171.3600 15.18292791    18
YINHE_L_00001001-478
1 10477U 25415IJ  26075.69965278  .00000000  00000+0  00000-0 0  9997
2 10477  63.5000   0.0000 0000000   0.0000 171.7200 15.18292791    19
YINHE_L_00001001-479
1 10478U 24937IG  26075.69965278  .00000000  00000+0  00000-0 0  9996
2 10478  63.5000   0.0000 0000000   0.0000 172.0800 15.18292791    10
YINHE_L_00001001-480
1 10479U 23027XS  26075.69965278  .00000000  00000+0  00000-0 0  9996
2 10479  63.5000   0.0000 0000000   0.0000 172.4400 15.18292791    11
YINHE_L_00001001-481
1 10480U 22446FF  26075.69965278  .00000000  00000+0  00000-0 0  9992
2 10480  63.5000   0.0000 0000000   0.0000 172.8000 15.18292791    13
YINHE_L_00001001-482
1 10481U 25137M   26075.69965278  .00000000  00000+0  00000-0 0  9993
2 10481  63.5000   0.0000 0000000   0.0000 173.1600 15.18292791    14
YINHE_L_00001001-483
1 10482U 22844UK  26075.69965278  .00000000  00000+0  00000-0 0  9996
2 10482  63.5000   0.0000 0000000   0.0000 173.5200 15.18292791    15
YINHE_L_00001001-484
1 10483U 22142KU  26075.69965278  .00000000  00000+0  00000-0 0  9998
2 10483  63.5000   0.0000 0000000   0.0000 173.8800 15.18292791    15
YINHE_L_00001001-485
1 10484U 22268EP  26075.69965278  .00000000  00000+0  00000-0 0  9998
2 10484  63.5000   0.0000 0000000   0.0000 174.2400 15.18292791    17
YINHE_L_00001001-486
1 10485U 25361UF  26075.69965278  .00000000  00000+0  00000-0 0  9996
2 10485  63.5000   0.0000 0000000   0.0000 174.6000 15.18292791    18
YINHE_L_00001001-487
1 10486U 23779UT  26075.69965278  .00000000  00000+0  00000-0 0  9998
2 10486  63.5000   0.0000 0000000   0.0000 174.9600 15.18292791    18
YINHE_L_00001001-488
1 10487U 24191HD  26075.69965278  .00000000  00000+0  00000-0 0  9998
2 10487  63.5000   0.0000 0000000   0.0000 175.3200 15.18292791    10
YINHE_L_00001001-489
1 10488U 25452WN  26075.69965278  .00000000  00000+0  00000-0 0  9990
2 10488  63.5000   0.0000 0000000   0.0000 175.6800 15.18292791    10
YINHE_L_00001001-490
1 10489U 23428ED  26075.69965278  .00000000  00000+0  00000-0 0  9992
2 10489  63.5000   0.0000 0000000   0.0000 176.0400 15.18292791    12
YINHE_L_00001001-491
1 10490U 26465YS  26075.69965278  .00000000  00000+0  00000-0 0  9998
2 10490  63.5000   0.0000 0000000   0.0000 176.4000 15.18292791    14
YINHE_L_00001001-492
1 10491U 26125OT  26075.69965278  .00000000  00000+0  00000-0 0  9992
2 10491  63.5000   0.0000 0000000   0.0000 176.7600 15.18292791    14
YINHE_L_00001001-493
1 10492U 24492AQ  26075.69965278  .00000000  00000+0  00000-0 0  9998
2 10492  63.5000   0.0000 0000000   0.0000 177.1200 15.18292791    16
YINHE_L_00001001-494
1 10493U 22297GM  26075.69965278  .00000000  00000+0  00000-0 0  9990
2 10493  63.5000   0.0000 0000000   0.0000 177.4800 15.18292791    16
YINHE_L_00001001-495
1 10494U 23416TW  26075.69965278  .00000000  00000+0  00000-0 0  9995
2 10494  63.5000   0.0000 0000000   0.0000 177.8400 15.18292791    17
YINHE_L_00001001-496
1 10495U 22063KM  26075.69965278  .00000000  00000+0  00000-0 0  9993
2 10495  63.5000   0.0000 0000000   0.0000 178.2000 15.18292791    19
